[{"COMMENT":"GENERATED VIA SPACETRACK.ORG API","ORIGINATOR":"18 SPCS","NORAD_CAT_ID":"43476","OBJECT_NAME":"GRACE-FO 1","OBJECT_TYPE":"PAYLOAD","CLASSIFICATION_TYPE":"U","INTLDES":"18047A","EPOCH":"2023-10-20 13:11:01","EPOCH_MICROSECONDS":"842432","MEAN_MOTION":"15.27114162","ECCENTRICITY":"0.0010661","INCLINATION":"88.9851","RA_OF_ASC_NODE":"332.1407","ARG_OF_PERICENTER":"276.431","MEAN_ANOMALY":"83.5725","EPHEMERIS_TYPE":"0","ELEMENT_SET_NO":"999","REV_AT_EPOCH":"30112","BSTAR":"0.00016731","MEAN_MOTION_DOT":"0.00004481","MEAN_MOTION_DDOT":"0","FILE":"4044291","TLE_LINE0":"0 GRACE-FO 1","TLE_LINE1":"1 43476U 18047A   23293.54932688  .00004481  00000-0  16731-3 0  9996","TLE_LINE2":"2 43476  88.9851 332.1407 0010661 276.4310  83.5725 15.27114162301129","OBJECT_ID":"2018-047A","OBJECT_NUMBER":"43476","SEMIMAJOR_AXIS":"6862.581","PERIOD":"94.296","APOGEE":"491.763","PERIGEE":"477.130","DECAYED":"0"},{"COMMENT":"GENERATED VIA SPACETRACK.ORG API","ORIGINATOR":"18 SPCS","NORAD_CAT_ID":"43476","OBJECT_NAME":"GRACE-FO 1","OBJECT_TYPE":"PAYLOAD","CLASSIFICATION_TYPE":"U","INTLDES":"18047A","EPOCH":"2023-10-20 21:02:50","EPOCH_MICROSECONDS":"289216","MEAN_MOTION":"15.27116982","ECCENTRICITY":"0.0010647","INCLINATION":"88.9851","RA_OF_ASC_NODE":"332.096","ARG_OF_PERICENTER":"274.8895","MEAN_ANOMALY":"85.1138","EPHEMERIS_TYPE":"0","ELEMENT_SET_NO":"999","REV_AT_EPOCH":"30117","BSTAR":"0.00017032","MEAN_MOTION_DOT":"0.00004561","MEAN_MOTION_DDOT":"0","FILE":"4044750","TLE_LINE0":"0 GRACE-FO 1","TLE_LINE1":"1 43476U 18047A   23293.87697094  .00004561  00000-0  17032-3 0  9995","TLE_LINE2":"2 43476  88.9851 332.0960 0010647 274.8895  85.1138 15.27116982301179","OBJECT_ID":"2018-047A","OBJECT_NUMBER":"43476","SEMIMAJOR_AXIS":"6862.573","PERIOD":"94.295","APOGEE":"491.744","PERIGEE":"477.131","DECAYED":"0"},{"COMMENT":"GENERATED VIA SPACETRACK.ORG API","ORIGINATOR":"18 SPCS","NORAD_CAT_ID":"43476","OBJECT_NAME":"GRACE-FO 1","OBJECT_TYPE":"PAYLOAD","CLASSIFICATION_TYPE":"U","INTLDES":"18047A","EPOCH":"2023-10-21 12:46:26","EPOCH_MICROSECONDS":"996160","MEAN_MOTION":"15.27121864","ECCENTRICITY":"0.0010637","INCLINATION":"88.9852","RA_OF_ASC_NODE":"332.0065","ARG_OF_PERICENTER":"271.6264","MEAN_ANOMALY":"88.3767","EPHEMERIS_TYPE":"0","ELEMENT_SET_NO":"999","REV_AT_EPOCH":"30127","BSTAR":"0.00015327","MEAN_MOTION_DOT":"0.00004108","MEAN_MOTION_DDOT":"0","FILE":"4045388","TLE_LINE0":"0 GRACE-FO 1","TLE_LINE1":"1 43476U 18047A   23294.53225690  .00004108  00000-0  15327-3 0  9990","TLE_LINE2":"2 43476  88.9852 332.0065 0010637 271.6264  88.3767 15.27121864301279","OBJECT_ID":"2018-047A","OBJECT_NUMBER":"43476","SEMIMAJOR_AXIS":"6862.558","PERIOD":"94.295","APOGEE":"491.723","PERIGEE":"477.124","DECAYED":"0"},{"COMMENT":"GENERATED VIA SPACETRACK.ORG API","ORIGINATOR":"18 SPCS","NORAD_CAT_ID":"43476","OBJECT_NAME":"GRACE-FO 1","OBJECT_TYPE":"PAYLOAD","CLASSIFICATION_TYPE":"U","INTLDES":"18047A","EPOCH":"2023-10-21 22:12:36","EPOCH_MICROSECONDS":"923904","MEAN_MOTION":"15.27125226","ECCENTRICITY":"0.0010634","INCLINATION":"88.9851","RA_OF_ASC_NODE":"331.9529","ARG_OF_PERICENTER":"269.7057","MEAN_ANOMALY":"90.2973","EPHEMERIS_TYPE":"0","ELEMENT_SET_NO":"999","REV_AT_EPOCH":"30133","BSTAR":"0.0001528","MEAN_MOTION_DOT":"0.00004096","MEAN_MOTION_DDOT":"0","FILE":"4046563","TLE_LINE0":"0 GRACE-FO 1","TLE_LINE1":"1 43476U 18047A   23294.92542736  .00004096  00000-0  15280-3 0  9990","TLE_LINE2":"2 43476  88.9851 331.9529 0010634 269.7057  90.2973 15.27125226301330","OBJECT_ID":"2018-047A","OBJECT_NUMBER":"43476","SEMIMAJOR_AXIS":"6862.548","PERIOD":"94.295","APOGEE":"491.711","PERIGEE":"477.116","DECAYED":"0"},{"COMMENT":"GENERATED VIA SPACETRACK.ORG API","ORIGINATOR":"18 SPCS","NORAD_CAT_ID":"43476","OBJECT_NAME":"GRACE-FO 1","OBJECT_TYPE":"PAYLOAD","CLASSIFICATION_TYPE":"U","INTLDES":"18047A","EPOCH":"2023-10-22 13:56:13","EPOCH_MICROSECONDS":"295616","MEAN_MOTION":"15.27130291","ECCENTRICITY":"0.0010638","INCLINATION":"88.9852","RA_OF_ASC_NODE":"331.8634","ARG_OF_PERICENTER":"266.5009","MEAN_ANOMALY":"93.5024","EPHEMERIS_TYPE":"0","ELEMENT_SET_NO":"999","REV_AT_EPOCH":"30143","BSTAR":"0.00013871","MEAN_MOTION_DOT":"0.00003722","MEAN_MOTION_DDOT":"0","FILE":"4047923","TLE_LINE0":"0 GRACE-FO 1","TLE_LINE1":"1 43476U 18047A   23295.58070944  .00003722  00000-0  13871-3 0  9999","TLE_LINE2":"2 43476  88.9852 331.8634 0010638 266.5009  93.5024 15.27130291301435","OBJECT_ID":"2018-047A","OBJECT_NUMBER":"43476","SEMIMAJOR_AXIS":"6862.533","PERIOD":"94.295","APOGEE":"491.698","PERIGEE":"477.098","DECAYED":"0"},{"COMMENT":"GENERATED VIA SPACETRACK.ORG API","ORIGINATOR":"18 SPCS","NORAD_CAT_ID":"43476","OBJECT_NAME":"GRACE-FO 1","OBJECT_TYPE":"PAYLOAD","CLASSIFICATION_TYPE":"U","INTLDES":"18047A","EPOCH":"2023-10-22 20:13:39","EPOCH_MICROSECONDS":"778464","MEAN_MOTION":"15.27133864","ECCENTRICITY":"0.0010644","INCLINATION":"88.9851","RA_OF_ASC_NODE":"331.8277","ARG_OF_PERICENTER":"265.2175","MEAN_ANOMALY":"94.7859","EPHEMERIS_TYPE":"0","ELEMENT_SET_NO":"999","REV_AT_EPOCH":"30147","BSTAR":"0.00015999","MEAN_MOTION_DOT":"0.00004288","MEAN_MOTION_DDOT":"0","FILE":"4047964","TLE_LINE0":"0 GRACE-FO 1","TLE_LINE1":"1 43476U 18047A   23295.84282151  .00004288  00000-0  15999-3 0  9994","TLE_LINE2":"2 43476  88.9851 331.8277 0010644 265.2175  94.7859 15.27133864301476","OBJECT_ID":"2018-047A","OBJECT_NUMBER":"43476","SEMIMAJOR_AXIS":"6862.522","PERIOD":"94.294","APOGEE":"491.692","PERIGEE":"477.083","DECAYED":"0"},{"COMMENT":"GENERATED VIA SPACETRACK.ORG API","ORIGINATOR":"18 SPCS","NORAD_CAT_ID":"43476","OBJECT_NAME":"GRACE-FO 1","OBJECT_TYPE":"PAYLOAD","CLASSIFICATION_TYPE":"U","INTLDES":"18047A","EPOCH":"2023-10-22 21:48:01","EPOCH_MICROSECONDS":"396800","MEAN_MOTION":"15.2713446","ECCENTRICITY":"0.0010646","INCLINATION":"88.9851","RA_OF_ASC_NODE":"331.8187","ARG_OF_PERICENTER":"264.8934","MEAN_ANOMALY":"95.11","EPHEMERIS_TYPE":"0","ELEMENT_SET_NO":"999","REV_AT_EPOCH":"30148","BSTAR":"0.00016068","MEAN_MOTION_DOT":"0.00004307","MEAN_MOTION_DDOT":"0","FILE":"4048538","TLE_LINE0":"0 GRACE-FO 1","TLE_LINE1":"1 43476U 18047A   23295.90834950  .00004307  00000-0  16068-3 0  9991","TLE_LINE2":"2 43476  88.9851 331.8187 0010646 264.8934  95.1100 15.27134460301484","OBJECT_ID":"2018-047A","OBJECT_NUMBER":"43476","SEMIMAJOR_AXIS":"6862.521","PERIOD":"94.294","APOGEE":"491.691","PERIGEE":"477.080","DECAYED":"0"},{"COMMENT":"GENERATED VIA SPACETRACK.ORG API","ORIGINATOR":"18 SPCS","NORAD_CAT_ID":"43476","OBJECT_NAME":"GRACE-FO 1","OBJECT_TYPE":"PAYLOAD","CLASSIFICATION_TYPE":"U","INTLDES":"18047A","EPOCH":"2023-10-23 21:23:25","EPOCH_MICROSECONDS":"495584","MEAN_MOTION":"15.27140699","ECCENTRICITY":"0.0010686","INCLINATION":"88.9849","RA_OF_ASC_NODE":"331.6846","ARG_OF_PERICENTER":"260.1344","MEAN_ANOMALY":"99.8699","EPHEMERIS_TYPE":"0","ELEMENT_SET_NO":"999","REV_AT_EPOCH":"30163","BSTAR":"0.0001379","MEAN_MOTION_DOT":"0.00003701","MEAN_MOTION_DDOT":"0","FILE":"4050204","TLE_LINE0":"0 GRACE-FO 1","TLE_LINE1":"1 43476U 18047A   23296.89126731  .00003701  00000-0  13790-3 0  9997","TLE_LINE2":"2 43476  88.9849 331.6846 0010686 260.1344  99.8699 15.27140699301631","OBJECT_ID":"2018-047A","OBJECT_NUMBER":"43476","SEMIMAJOR_AXIS":"6862.502","PERIOD":"94.294","APOGEE":"491.700","PERIGEE":"477.034","DECAYED":"0"},{"COMMENT":"GENERATED VIA SPACETRACK.ORG API","ORIGINATOR":"18 SPCS","NORAD_CAT_ID":"43476","OBJECT_NAME":"GRACE-FO 1","OBJECT_TYPE":"PAYLOAD","CLASSIFICATION_TYPE":"U","INTLDES":"18047A","EPOCH":"2023-10-24 03:40:51","EPOCH_MICROSECONDS":"855744","MEAN_MOTION":"15.2714262","ECCENTRICITY":"0.0010699","INCLINATION":"88.9848","RA_OF_ASC_NODE":"331.6488","ARG_OF_PERICENTER":"258.8271","MEAN_ANOMALY":"101.1775","EPHEMERIS_TYPE":"0","ELEMENT_SET_NO":"999","REV_AT_EPOCH":"30167","BSTAR":"0.00013527","MEAN_MOTION_DOT":"0.00003631","MEAN_MOTION_DDOT":"0","FILE":"4050227","TLE_LINE0":"0 GRACE-FO 1","TLE_LINE1":"1 43476U 18047A   23297.15337796  .00003631  00000-0  13527-3 0  9992","TLE_LINE2":"2 43476  88.9848 331.6488 0010699 258.8271 101.1775 15.27142620301671","OBJECT_ID":"2018-047A","OBJECT_NUMBER":"43476","SEMIMAJOR_AXIS":"6862.496","PERIOD":"94.294","APOGEE":"491.703","PERIGEE":"477.019","DECAYED":"0"},{"COMMENT":"GENERATED VIA SPACETRACK.ORG API","ORIGINATOR":"18 SPCS","NORAD_CAT_ID":"43476","OBJECT_NAME":"GRACE-FO 1","OBJECT_TYPE":"PAYLOAD","CLASSIFICATION_TYPE":"U","INTLDES":"18047A","EPOCH":"2023-10-24 13:07:01","EPOCH_MICROSECONDS":"389504","MEAN_MOTION":"15.27144171","ECCENTRICITY":"0.0010719","INCLINATION":"88.9848","RA_OF_ASC_NODE":"331.5952","ARG_OF_PERICENTER":"256.8287","MEAN_ANOMALY":"103.1767","EPHEMERIS_TYPE":"0","ELEMENT_SET_NO":"999","REV_AT_EPOCH":"30173","BSTAR":"0.00011986","MEAN_MOTION_DOT":"0.00003221","MEAN_MOTION_DDOT":"0","FILE":"4051588","TLE_LINE0":"0 GRACE-FO 1","TLE_LINE1":"1 43476U 18047A   23297.54654386  .00003221  00000-0  11986-3 0  9994","TLE_LINE2":"2 43476  88.9848 331.5952 0010719 256.8287 103.1767 15.27144171301737","OBJECT_ID":"2018-047A","OBJECT_NUMBER":"43476","SEMIMAJOR_AXIS":"6862.491","PERIOD":"94.294","APOGEE":"491.712","PERIGEE":"477.001","DECAYED":"0"}]